CCSDS_OMM_VERS = 2.0
CREATION_DATE  = 
ORIGINATOR     = 

OBJECT_NAME    = HULIANWANG DIGUI-134
OBJECT_ID      = 2025-311G
CENTER_NAME    = EARTH
REF_FRAME      = TEME
TIME_SYSTEM    = UTC
MEAN_ELEMENT_THEORY = SGP/SGP4

EPOCH          = 2026-01-15T15:19:34.653792
MEAN_MOTION    = 13.90195582
ECCENTRICITY   = .00067014
INCLINATION    = 50.0053
RA_OF_ASC_NODE = 313.4415
ARG_OF_PERICENTER = 332.6519
MEAN_ANOMALY   = 27.4026

EPHEMERIS_TYPE = 0
CLASSIFICATION_TYPE = U
NORAD_CAT_ID   = 67242
ELEMENT_SET_NO = 999
REV_AT_EPOCH   = 288
BSTAR          = .83319738E-4
MEAN_MOTION_DOT = -.43E-6
MEAN_MOTION_DDOT = 0

CCSDS_OMM_VERS = 2.0
CREATION_DATE  = 
ORIGINATOR     = 

OBJECT_NAME    = HULIANWANG DIGUI-135
OBJECT_ID      = 2025-311H
CENTER_NAME    = EARTH
REF_FRAME      = TEME
TIME_SYSTEM    = UTC
MEAN_ELEMENT_THEORY = SGP/SGP4

EPOCH          = 2026-01-15T10:12:02.444256
MEAN_MOTION    = 13.90184520
ECCENTRICITY   = .00079203
INCLINATION    = 50.0039
RA_OF_ASC_NODE = 314.3073
ARG_OF_PERICENTER = 334.4451
MEAN_ANOMALY   = 25.6055

EPHEMERIS_TYPE = 0
CLASSIFICATION_TYPE = U
NORAD_CAT_ID   = 67243
ELEMENT_SET_NO = 999
REV_AT_EPOCH   = 285
BSTAR          = .80001537E-4
MEAN_MOTION_DOT = -.47E-6
MEAN_MOTION_DDOT = 0

CCSDS_OMM_VERS = 2.0
CREATION_DATE  = 
ORIGINATOR     = 

OBJECT_NAME    = HULIANWANG DIGUI-136
OBJECT_ID      = 2025-311J
CENTER_NAME    = EARTH
REF_FRAME      = TEME
TIME_SYSTEM    = UTC
MEAN_ELEMENT_THEORY = SGP/SGP4

EPOCH          = 2026-01-15T15:16:20.220960
MEAN_MOTION    = 13.90230435
ECCENTRICITY   = .00068454
INCLINATION    = 50.0111
RA_OF_ASC_NODE = 313.4448
ARG_OF_PERICENTER = 341.4891
MEAN_ANOMALY   = 18.5758

EPHEMERIS_TYPE = 0
CLASSIFICATION_TYPE = U
NORAD_CAT_ID   = 67244
ELEMENT_SET_NO = 999
REV_AT_EPOCH   = 288
BSTAR          = .81175873E-4
MEAN_MOTION_DOT = -.45E-6
MEAN_MOTION_DDOT = 0

CCSDS_OMM_VERS = 2.0
CREATION_DATE  = 
ORIGINATOR     = 

OBJECT_NAME    = CZ-8A R/B
OBJECT_ID      = 2025-311K
CENTER_NAME    = EARTH
REF_FRAME      = TEME
TIME_SYSTEM    = UTC
MEAN_ELEMENT_THEORY = SGP/SGP4

EPOCH          = 2026-01-15T14:35:34.662912
MEAN_MOTION    = 14.12608664
ECCENTRICITY   = .00889546
INCLINATION    = 50.0054
RA_OF_ASC_NODE = 310.6056
ARG_OF_PERICENTER = 153.2495
MEAN_ANOMALY   = 207.3041

EPHEMERIS_TYPE = 0
CLASSIFICATION_TYPE = U
NORAD_CAT_ID   = 67245
ELEMENT_SET_NO = 999
REV_AT_EPOCH   = 292
BSTAR          = -.33074452E-4
MEAN_MOTION_DOT = -.219E-5
MEAN_MOTION_DDOT = 0

CCSDS_OMM_VERS = 2.0
CREATION_DATE  = 
ORIGINATOR     = 

OBJECT_NAME    = FENGYUN 4C
OBJECT_ID      = 2025-312A
CENTER_NAME    = EARTH
REF_FRAME      = TEME
TIME_SYSTEM    = UTC
MEAN_ELEMENT_THEORY = SGP/SGP4

EPOCH          = 2026-01-15T14:43:05.211264
MEAN_MOTION    = 1.00268716
ECCENTRICITY   = .0002406
INCLINATION    = 0.0749
RA_OF_ASC_NODE = 237.3559
ARG_OF_PERICENTER = 53.6596
MEAN_ANOMALY   = 177.8881

EPHEMERIS_TYPE = 0
CLASSIFICATION_TYPE = U
NORAD_CAT_ID   = 67246
ELEMENT_SET_NO = 999
REV_AT_EPOCH   = 25
BSTAR          = 0
MEAN_MOTION_DOT = -.304E-5
MEAN_MOTION_DDOT = 0

CCSDS_OMM_VERS = 2.0
CREATION_DATE  = 
ORIGINATOR     = 

OBJECT_NAME    = CZ-3B R/B
OBJECT_ID      = 2025-312B
CENTER_NAME    = EARTH
REF_FRAME      = TEME
TIME_SYSTEM    = UTC
MEAN_ELEMENT_THEORY = SGP/SGP4

EPOCH          = 2026-01-14T22:29:09.687552
MEAN_MOTION    = 2.43934644
ECCENTRICITY   = .72063152
INCLINATION    = 28.3826
RA_OF_ASC_NODE = 326.6661
ARG_OF_PERICENTER = 191.5174
MEAN_ANOMALY   = 132.7342

EPHEMERIS_TYPE = 0
CLASSIFICATION_TYPE = U
NORAD_CAT_ID   = 67247
ELEMENT_SET_NO = 999
REV_AT_EPOCH   = 46
BSTAR          = .51133256E-3
MEAN_MOTION_DOT = .167779E-2
MEAN_MOTION_DDOT = -.278519E-6

CCSDS_OMM_VERS = 2.0
CREATION_DATE  = 
ORIGINATOR     = 

OBJECT_NAME    = 2025-313A
OBJECT_ID      = 2025-313A
CENTER_NAME    = EARTH
REF_FRAME      = TEME
TIME_SYSTEM    = UTC
MEAN_ELEMENT_THEORY = SGP/SGP4

EPOCH          = 2026-01-15T13:11:36.535488
MEAN_MOTION    = 14.66794815
ECCENTRICITY   = .02805672
INCLINATION    = 97.5631
RA_OF_ASC_NODE = 91.6889
ARG_OF_PERICENTER = 106.9925
MEAN_ANOMALY   = 256.2229

EPHEMERIS_TYPE = 0
CLASSIFICATION_TYPE = U
NORAD_CAT_ID   = 67248
ELEMENT_SET_NO = 999
REV_AT_EPOCH   = 264
BSTAR          = .10777221E-3
MEAN_MOTION_DOT = .1032E-4
MEAN_MOTION_DDOT = 0

CCSDS_OMM_VERS = 2.0
CREATION_DATE  = 
ORIGINATOR     = 

OBJECT_NAME    = 2025-313B
OBJECT_ID      = 2025-313B
CENTER_NAME    = EARTH
REF_FRAME      = TEME
TIME_SYSTEM    = UTC
MEAN_ELEMENT_THEORY = SGP/SGP4

EPOCH          = 2026-01-15T14:36:56.576160
MEAN_MOTION    = 14.73196344
ECCENTRICITY   = .02977857
INCLINATION    = 97.5323
RA_OF_ASC_NODE = 91.8326
ARG_OF_PERICENTER = 111.0004
MEAN_ANOMALY   = 252.3335

EPHEMERIS_TYPE = 0
CLASSIFICATION_TYPE = U
NORAD_CAT_ID   = 67249
ELEMENT_SET_NO = 999
REV_AT_EPOCH   = 266
BSTAR          = .18928995E-3
MEAN_MOTION_DOT = .2437E-4
MEAN_MOTION_DDOT = 0

CCSDS_OMM_VERS = 2.0
CREATION_DATE  = 
ORIGINATOR     = 

OBJECT_NAME    = 2025-313C
OBJECT_ID      = 2025-313C
CENTER_NAME    = EARTH
REF_FRAME      = TEME
TIME_SYSTEM    = UTC
MEAN_ELEMENT_THEORY = SGP/SGP4

EPOCH          = 2026-01-15T14:35:18.926880
MEAN_MOTION    = 14.84683442
ECCENTRICITY   = .01630064
INCLINATION    = 97.6365
RA_OF_ASC_NODE = 92.3802
ARG_OF_PERICENTER = 121.0430
MEAN_ANOMALY   = 240.6905

EPHEMERIS_TYPE = 0
CLASSIFICATION_TYPE = U
NORAD_CAT_ID   = 67250
ELEMENT_SET_NO = 999
REV_AT_EPOCH   = 268
BSTAR          = .88883987E-3
MEAN_MOTION_DOT = .9499E-4
MEAN_MOTION_DDOT = 0

CCSDS_OMM_VERS = 2.0
CREATION_DATE  = 
ORIGINATOR     = 

OBJECT_NAME    = 2025-313D
OBJECT_ID      = 2025-313D
CENTER_NAME    = EARTH
REF_FRAME      = TEME
TIME_SYSTEM    = UTC
MEAN_ELEMENT_THEORY = SGP/SGP4

EPOCH          = 2026-01-15T14:57:03.921984
MEAN_MOTION    = 14.88743795
ECCENTRICITY   = .01524296
INCLINATION    = 97.5879
RA_OF_ASC_NODE = 92.3833
ARG_OF_PERICENTER = 113.5730
MEAN_ANOMALY   = 248.1581

EPHEMERIS_TYPE = 0
CLASSIFICATION_TYPE = U
NORAD_CAT_ID   = 67251
ELEMENT_SET_NO = 999
REV_AT_EPOCH   = 269
BSTAR          = .18674333E-3
MEAN_MOTION_DOT = .2108E-4
MEAN_MOTION_DDOT = 0

CCSDS_OMM_VERS = 2.0
CREATION_DATE  = 
ORIGINATOR     = 

OBJECT_NAME    = ZORKIY-2M-VPE
OBJECT_ID      = 2025-313E
CENTER_NAME    = EARTH
REF_FRAME      = TEME
TIME_SYSTEM    = UTC
MEAN_ELEMENT_THEORY = SGP/SGP4

EPOCH          = 2026-01-15T15:09:03.935520
MEAN_MOTION    = 15.21648296
ECCENTRICITY   = .00111732
INCLINATION    = 97.4117
RA_OF_ASC_NODE = 92.8209
ARG_OF_PERICENTER = 154.8803
MEAN_ANOMALY   = 205.2979

EPHEMERIS_TYPE = 0
CLASSIFICATION_TYPE = U
NORAD_CAT_ID   = 67252
ELEMENT_SET_NO = 999
REV_AT_EPOCH   = 275
BSTAR          = .24048072E-3
MEAN_MOTION_DOT = .5374E-4
MEAN_MOTION_DDOT = 0

CCSDS_OMM_VERS = 2.0
CREATION_DATE  = 
ORIGINATOR     = 

OBJECT_NAME    = AIST-2T 1
OBJECT_ID      = 2025-313F
CENTER_NAME    = EARTH
REF_FRAME      = TEME
TIME_SYSTEM    = UTC
MEAN_ELEMENT_THEORY = SGP/SGP4

EPOCH          = 2026-01-15T15:38:41.281152
MEAN_MOTION    = 15.65147674
ECCENTRICITY   = .00104865
INCLINATION    = 97.1038
RA_OF_ASC_NODE = 92.9868
ARG_OF_PERICENTER = 173.0068
MEAN_ANOMALY   = 187.1340

EPHEMERIS_TYPE = 0
CLASSIFICATION_TYPE = U
NORAD_CAT_ID   = 67253
ELEMENT_SET_NO = 999
REV_AT_EPOCH   = 281
BSTAR          = .36620203E-3
MEAN_MOTION_DOT = .36196E-3
MEAN_MOTION_DDOT = 0

