HULIANWANG DIGUI-134    
1 67242U 25311G   26015.63859553 -.00000043  00000+0  83320-4 0  9998
2 67242  50.0053 313.4415 0006701 332.6519  27.4026 13.90195582  2882
HULIANWANG DIGUI-135    
1 67243U 25311H   26015.42502829 -.00000047  00000+0  80002-4 0  9995
2 67243  50.0039 314.3073 0007920 334.4451  25.6055 13.90184520  2855
HULIANWANG DIGUI-136    
1 67244U 25311J   26015.63634515 -.00000045  00000+0  81176-4 0  9998
2 67244  50.0111 313.4448 0006845 341.4891  18.5758 13.90230435  2885
CZ-8A R/B               
1 67245U 25311K   26015.60804008 -.00000219  00000+0 -33074-4 0  9990
2 67245  50.0054 310.6056 0088954 153.2495 207.3041 14.12608664  2922
FENGYUN 4C              
1 67246U 25312A   26015.61325476 -.00000304  00000+0  00000+0 0  9992
2 67246   0.0749 237.3559 0002406  53.6596 177.8881  1.00268716   255
CZ-3B R/B               
1 67247U 25312B   26014.93691768  .00167779 -27852-6  51133-3 0  9995
2 67247  28.3826 326.6661 7206315 191.5174 132.7342  2.43934644   460
2025-313A               
1 67248U 25313A   26015.54972842  .00001032  00000+0  10777-3 0  9996
2 67248  97.5631  91.6889 0280567 106.9925 256.2229 14.66794815  2642
2025-313B               
1 67249U 25313B   26015.60898815  .00002437  00000+0  18929-3 0  9998
2 67249  97.5323  91.8326 0297785 111.0004 252.3335 14.73196344  2662
2025-313C               
1 67250U 25313C   26015.60785795  .00009499  00000+0  88884-3 0  9994
2 67250  97.6365  92.3802 0163006 121.0430 240.6905 14.84683442  2685
2025-313D               
1 67251U 25313D   26015.62296206  .00002108  00000+0  18674-3 0  9991
2 67251  97.5879  92.3833 0152429 113.5730 248.1581 14.88743795  2691
ZORKIY-2M-VPE           
1 67252U 25313E   26015.63129555  .00005374  00000+0  24048-3 0  9995
2 67252  97.4117  92.8209 0011173 154.8803 205.2979 15.21648296  2757
AIST-2T 1               
1 67253U 25313F   26015.65186668  .00036196  00000+0  36620-3 0  9991
2 67253  97.1038  92.9868 0010486 173.0068 187.1340 15.65147674  2810
